NORAD_CAT_ID,OBJECT_NAME,OBJECT_TYPE,EPOCH,MEAN_MOTION,ECCENTRICITY,INCLINATION,RA_OF_ASC_NODE,ARG_OF_PERICENTER,MEAN_ANOMALY,BSTAR,MEAN_MOTION_DOT,MEAN_MOTION_DDOT,TLE_LINE0,TLE_LINE1,TLE_LINE2,SEMIMAJOR_AXIS,PERIOD,APOGEE,PERIGEE,DECAYED
49174.0,STARLINK-3047,PAYLOAD,2022-02-06 22:00:00,15.46346928,0.0003498,69.9999,77.8685,270.3823,130.695,-0.014279,-0.00651466,0.0,0 STARLINK-3047,1 49174U 21082AW  22037.91667824 -.00651466  00000-0 -14279-1 0  9999,2 49174  69.9999  77.8685 0003498 270.3823 130.6950 15.46346928  3676,6805.56,93.123,429.806,425.045,0.0
49174.0,STARLINK-3047,PAYLOAD,2022-02-07 14:00:01,15.45411625,0.0003369,69.9999,76.0627,275.3011,234.7823,-0.01472,-0.00650361,0.0,0 STARLINK-3047,1 49174U 21082AW  22038.58334491 -.00650361  00000-0 -14720-1 0  9998,2 49174  69.9999  76.0627 0003369 275.3011 234.7823 15.45411625 24230,6808.306,93.179,432.465,427.877,0.0
49174.0,STARLINK-3047,PAYLOAD,2022-02-07 22:00:00,15.44945431,0.0003279,70.0,75.1608,268.8294,294.9155,-0.014999,-0.00652026,0.0,0 STARLINK-3047,1 49174U 21082AW  22038.91667824 -.00652026  00000-0 -14999-1 0  9992,2 49174  70.0000  75.1608 0003279 268.8294 294.9155 15.44945431  3694,6809.675,93.207,433.773,429.3080000000001,0.0
49174.0,STARLINK-3047,PAYLOAD,2022-02-08 14:00:01,15.44011208,0.0003393,69.9999,73.3587,268.0735,41.3135,-0.01551,-0.00653033,0.0,0 STARLINK-3047,1 49174U 21082AW  22039.58334491 -.00653033  00000-0 -15510-1 0  9996,2 49174  69.9999  73.3587 0003393 268.0735  41.3135 15.44011208 24391,6812.422,93.264,436.598,431.976,0.0
49174.0,STARLINK-3047,PAYLOAD,2022-02-08 22:00:01,15.43542081,0.0003454,70.0001,72.4589,269.8505,91.5818,-0.015719,-0.00651517,0.0,0 STARLINK-3047,1 49174U 21082AW  22039.91668981 -.00651517  00000-0 -15719-1 0  9993,2 49174  70.0001  72.4589 0003454 269.8505  91.5818 15.43542081  3683,6813.802,93.292,438.021,433.314,0.0
49174.0,STARLINK-3047,PAYLOAD,2022-02-09 14:00:01,15.42608416,0.0003429,69.9997,70.6609,271.0078,192.638,-0.01625,-0.00652526,0.0,0 STARLINK-3047,1 49174U 21082AW  22040.58334491 -.00652526  00000-0 -16250-1 0  9996,2 49174  69.9997  70.6609 0003429 271.0078 192.6380 15.42608416 24548,6816.551,93.348,440.754,436.079,0.0
49174.0,STARLINK-3047,PAYLOAD,2022-02-10 14:00:01,15.41206327,0.0003293,69.9998,67.9685,269.2579,343.665,-0.017064,-0.00661425,0.0,0 STARLINK-3047,1 49174U 21082AW  22041.58335648 -.00661425  00000-0 -17064-1 0  9994,2 49174  69.9998  67.9685 0003293 269.2579 343.6650 15.41206327 24694,6820.685,93.433,444.796,440.304,0.0
49174.0,STARLINK-3047,PAYLOAD,2022-02-10 22:00:00,15.407366199999998,0.0003359,70.0,67.0725,269.3551,32.1209,-0.017227,-0.00657673,0.0,0 STARLINK-3047,1 49174U 21082AW  22041.91667824 -.00657673  00000-0 -17227-1 0  9996,2 49174  70.0000  67.0725 0003359 269.3551  32.1209 15.40736620  3657,6822.071,93.462,446.228,441.645,0.0
49174.0,STARLINK-3047,PAYLOAD,2022-02-11 12:17:30,15.41085143,0.0003555,69.9956,65.4625,280.3343,79.7437,-0.0050772,-0.0020528,0.0,0 STARLINK-3047,1 49174U 21082AW  22042.51216283 -.00205280  00000-0 -50772-2 0  9998,2 49174  69.9956  65.4625 0003555 280.3343  79.7437 15.41085143 24847,6821.042,93.441,445.332,440.483,0.0
49174.0,STARLINK-3047,PAYLOAD,2022-02-11 22:00:01,15.39334735,0.0003449,70.0,64.3879,272.8932,171.132,-0.018082,-0.00658976,0.0,0 STARLINK-3047,1 49174U 21082AW  22042.91668981 -.00658976  00000-0 -18082-1 0  9999,2 49174  70.0000  64.3879 0003449 272.8932 171.1320 15.39334735 24907,6826.212,93.547,450.432,445.723,0.0
49174.0,STARLINK-3047,PAYLOAD,2022-02-12 14:00:01,15.38402495,0.0003273999999999,69.9997,62.6011,269.0727,267.0744,-0.018774,-0.00663247,0.0,0 STARLINK-3047,1 49174U 21082AW  22043.58334491 -.00663247  00000-0 -18774-1 0  9994,2 49174  69.9997  62.6011 0003274 269.0727 267.0744 15.38402495  3689,6828.97,93.604,453.071,448.599,0.0
49174.0,STARLINK-3047,PAYLOAD,2022-02-12 22:00:00,15.37932533,0.0003245,70.0,61.7088,270.1837,311.2169,-0.018927,-0.00658791,0.0,0 STARLINK-3047,1 49174U 21082AW  22043.91667824 -.00658791  00000-0 -18927-1 0  9998,2 49174  70.0000  61.7088 0003245 270.1837 311.2169 15.37932533 25052,6830.361,93.632,454.442,450.009,0.0
49174.0,STARLINK-3047,PAYLOAD,2022-02-13 14:00:01,15.37000054,0.0003347,69.9998,59.9259,267.9442,42.2787,-0.019645,-0.00663075,0.0,0 STARLINK-3047,1 49174U 21082AW  22044.58334491 -.00663075  00000-0 -19645-1 0  9992,2 49174  69.9998  59.9259 0003347 267.9442  42.2787 15.37000054  3678,6833.123000000001,93.689,457.275,452.701,0.0
49174.0,STARLINK-3047,PAYLOAD,2022-02-13 22:00:00,15.36528315,0.0003441,70.0,59.0356,273.8394,79.9558,-0.019725,-0.00656209,0.0,0 STARLINK-3047,1 49174U 21082AW  22044.91667824 -.00656209  00000-0 -19725-1 0  9998,2 49174  70.0000  59.0356 0003441 273.8394  79.9558 15.36528315 25212,6834.522,93.718,458.739,454.035,0.0
49174.0,STARLINK-3047,PAYLOAD,2022-02-14 14:00:01,15.3559664,0.0003415,69.9997,57.2566,269.8099,169.4433,-0.020483,-0.00660935,0.0,0 STARLINK-3047,1 49174U 21082AW  22045.58334491 -.00660935  00000-0 -20483-1 0  9997,2 49174  69.9997  57.2566 0003415 269.8099 169.4433 15.35596640  3662,6837.286,93.775,461.486,456.816,0.0
49174.0,STARLINK-3047,PAYLOAD,2022-02-14 22:00:00,15.35128664,0.0003363,69.9999,56.3681,275.4734,205.6689,-0.020801,-0.00661175,0.0,0 STARLINK-3047,1 49174U 21082AW  22045.91667824 -.00661175  00000-0 -20801-1 0  9994,2 49174  69.9999  56.3681 0003363 275.4734 205.6689 15.35128664  3677,6838.675,93.803,462.84,458.241,0.0
49174.0,STARLINK-3047,PAYLOAD,2022-02-15 14:00:01,15.34195389,0.0003217,69.9997,54.5928,268.6219,294.6154,-0.02152,-0.00663743,0.0,0 STARLINK-3047,1 49174U 21082AW  22046.58334491 -.00663743  00000-0 -21520-1 0  9991,2 49174  69.9997  54.5928 0003217 268.6219 294.6154 15.34195389  3660,6841.448,93.86,465.514,461.11300000000006,0.0
49174.0,STARLINK-3047,PAYLOAD,2022-02-15 22:00:01,15.33726087,0.0003224,69.9998,53.7061,272.2895,331.2191,-0.021739,-0.00660794,0.0,0 STARLINK-3047,1 49174U 21082AW  22046.91668981 -.00660794  00000-0 -21739-1 0  9997,2 49174  69.9998  53.7061 0003224 272.2895 331.2191 15.33726087 25510,6842.844,93.889,466.915,462.503,0.0
49174.0,STARLINK-3047,PAYLOAD,2022-02-16 14:00:01,15.32792835,0.0003344,69.9998,51.9346,265.7573,56.4187,-0.022491,-0.00663582,0.0,0 STARLINK-3047,1 49174U 21082AW  22047.58334491 -.00663582  00000-0 -22491-1 0  9991,2 49174  69.9998  51.9346 0003344 265.7573  56.4187 15.32792835  3665,6845.621,93.946,469.775,465.197,0.0
49174.0,STARLINK-3047,PAYLOAD,2022-02-16 22:00:00,15.32321381,0.000339,69.9999,51.05,269.233,91.4693,-0.022584,-0.00657,0.0,0 STARLINK-3047,1 49174U 21082AW  22047.91667824 -.00657000  00000-0 -22584-1 0  9998,2 49174  69.9999  51.0500 0003390 269.2330  91.4693 15.32321381  3665,6847.025,93.975,471.211,466.569,0.0
49174.0,STARLINK-3047,PAYLOAD,2022-02-17 06:00:00,15.3157603,0.0003353,70.0004,50.1642,272.1424,126.6787,-0.0095569,-0.002817,0.0,0 STARLINK-3047,1 49174U 21082AW  22048.25001157 -.00281700  00000-0 -95569-2 0  9991,2 49174  70.0004  50.1642 0003353 272.1424 126.6787 15.31576030 25726,6849.246999999999,94.021,473.408,468.815,0.0
49174.0,STARLINK-3047,PAYLOAD,2022-02-17 14:00:01,15.31389119,0.0003374,69.9997,49.2823,269.3971,166.6721,-0.023402,-0.00660897,0.0,0 STARLINK-3047,1 49174U 21082AW  22048.58334491 -.00660897  00000-0 -23402-1 0  9991,2 49174  69.9997  49.2823 0003374 269.3971 166.6721 15.31389119 25779,6849.804,94.032,473.98,469.358,0.0
49174.0,STARLINK-3047,PAYLOAD,2022-02-17 22:00:00,15.30920975,0.0003328,70.0,48.3995,272.04400000000004,200.8685,-0.023732,-0.00660515,0.0,0 STARLINK-3047,1 49174U 21082AW  22048.91667824 -.00660515  00000-0 -23732-1 0  9990,2 49174  70.0000  48.3995 0003328 272.0440 200.8685 15.30920975  3662,6851.2,94.061,475.345,470.785,0.0
49174.0,STARLINK-3047,PAYLOAD,2022-02-18 14:00:01,15.29987041,0.0003191999999999,69.9997,46.6354,270.4262,274.4901,-0.024485,-0.00661858,0.0,0 STARLINK-3047,1 49174U 21082AW  22049.58334491 -.00661858  00000-0 -24485-1 0  9992,2 49174  69.9997  46.6354 0003192 270.4262 274.4901 15.29987041  3660,6853.988,94.118,478.041,473.665,0.0
49174.0,STARLINK-3047,PAYLOAD,2022-02-18 22:00:00,15.29519749,0.000321,69.9999,45.7545,275.8629,304.2144,-0.024871,-0.0066259,0.0,0 STARLINK-3047,1 49174U 21082AW  22049.91667824 -.00662590  00000-0 -24871-1 0  9991,2 49174  69.9999  45.7545 0003210 275.8629 304.2144 15.29519749 25976,6855.384,94.147,479.45,475.048,0.0
49174.0,STARLINK-3047,PAYLOAD,2022-02-19 14:00:01,15.285852599999998,0.0003239,69.9997,43.9943,266.8603,21.8573,-0.025629,-0.00663354,0.0,0 STARLINK-3047,1 49174U 21082AW  22050.58334491 -.00663354  00000-0 -25629-1 0  9998,2 49174  69.9997  43.9943 0003239 266.8603  21.8573 15.28585260  3658,6858.178000000001,94.205,482.264,477.821,0.0
49174.0,STARLINK-3047,PAYLOAD,2022-02-19 22:00:00,15.28115268,0.0003316,70.0001,43.1154,274.9852,47.2124,-0.025819,-0.0065904,0.0,0 STARLINK-3047,1 49174U 21082AW  22050.91667824 -.00659040  00000-0 -25819-1 0  9992,2 49174  70.0001  43.1154 0003316 274.9852  47.2124 15.28115268  3634,6859.584,94.234,483.723,479.174,0.0
49174.0,STARLINK-3047,PAYLOAD,2022-02-20 06:00:00,15.27648647,0.0003374,70.0,42.2369,277.0117,78.104,-0.02624,-0.00660216,0.0,0 STARLINK-3047,1 49174U 21082AW  22051.25001157 -.00660216  00000-0 -26240-1 0  9997,2 49174  70.0000  42.2369 0003374 277.0117  78.1040 15.27648647 26189,6860.981,94.263,485.16,480.531,0.0
49174.0,STARLINK-3047,PAYLOAD,2022-02-20 14:00:01,15.2718211,0.0003376,69.9998,41.359,271.7542,115.7192,-0.026689,-0.00661899,0.0,0 STARLINK-3047,1 49174U 21082AW  22051.58334491 -.00661899  00000-0 -26689-1 0  9998,2 49174  69.9998  41.3590 0003376 271.7542 115.7192 15.27182110  3643,6862.378000000002,94.291,486.56,481.926,0.0
49174.0,STARLINK-3047,PAYLOAD,2022-02-20 22:00:00,15.26712355,0.0003365,70.0,40.4818,274.5156,144.7558,-0.026906,-0.00658097,0.0,0 STARLINK-3047,1 49174U 21082AW  22051.91667824 -.00658097  00000-0 -26906-1 0  9992,2 49174  70.0000  40.4818 0003365 274.5156 144.7558 15.26712355  3651,6863.785,94.32,487.96,483.341,0.0
